{"type":"FeatureCollection","name":"Hong Kong local ferry routes and terminals","license":"ODbL-1.0","attribution":"© OpenStreetMap contributors","source":"https://www.openstreetmap.org/copyright","extractedAt":"2026-10-07T07:21:24Z","extractionQuery":"[out:json][timeout:90];relation[route=ferry](22.15,113.75,22.57,114.45)->.routes;node[amenity=ferry_terminal](22.15,113.75,22.57,114.45)->.terminals;(.routes;way(r.routes);node(r.routes);.terminals;);out body geom;","scope":"Local Hong Kong passenger ferry relations with mapped local terminals; cross-border ferry routes are excluded.","features":[{"type":"Feature","properties":{"kind":"route","serviceKey":"ref:discovery bay central","name":"Discovery Bay - Central","serviceNames":["Discovery Bay - Central"],"operators":["愉景灣航運服務有限公司 Discovery Bay Transportation Services Limited"],"osmRelationIds":[3333342],"osmWayCount":1,"terminalNodeIds":[364861473,364861796,2539719870]},"geometry":{"type":"MultiLineString","coordinates":[[[114.0179625,22.2970171],[114.0179888,22.2970305],[114.0185461,22.2975314],[114.0191907,22.2981029],[114.019952,22.2986896],[114.020918,22.299331],[114.0218436,22.2998786],[114.0222728,22.3001006],[114.0242897,22.3008712],[114.0261985,22.3012595],[114.0280004,22.3014226],[114.0297895,22.3013314],[114.0314981,22.3011316],[114.0335715,22.3008127],[114.0353899,22.3004778],[114.0919069,22.2901958],[114.095376,22.2896844],[114.0989833,22.2892473],[114.1012305,22.2890776],[114.1036586,22.2890175],[114.1066894,22.2890708],[114.129844,22.2904141],[114.1434933,22.2929474],[114.1443939,22.2931187],[114.1455359,22.2932908],[114.146085,22.2933209],[114.1468592,22.2933267],[114.1476416,22.2932601],[114.1481232,22.2932048],[114.1494119,22.2929427],[114.1503107,22.2927542],[114.1556863,22.2915749],[114.1560478,22.2914668],[114.1563049,22.2913467],[114.1567017,22.2910585],[114.1569103,22.2908485],[114.1571254,22.2905854],[114.1572936,22.290303],[114.1573957,22.2900204],[114.1574228,22.2897357],[114.157401,22.2893459],[114.1573364,22.288795],[114.1573032,22.2886397],[114.1572995,22.288477],[114.1573029,22.2883573],[114.1573332,22.2882361],[114.1574022,22.2881918]]]}},{"type":"Feature","properties":{"kind":"route","serviceKey":"ref:cheung chau central","name":"Cheung Chau - Central","serviceNames":["Cheung Chau - Central"],"operators":["新世界第一渡輪服務有限公司 New World First Ferry Services Limited"],"osmRelationIds":[4094493],"osmWayCount":1,"terminalNodeIds":[335945800,1611297860]},"geometry":{"type":"MultiLineString","coordinates":[[[114.0283656,22.2087121],[114.0233894,22.2090955],[114.0228164,22.2091858],[114.0224352,22.2092989],[114.0220154,22.2094846],[114.0217207,22.2096789],[114.0213142,22.210205],[114.0209507,22.2108502],[114.0207261,22.2115867],[114.0205548,22.2126135],[114.0204576,22.2132218],[114.0204215,22.2140969],[114.0204389,22.214684],[114.0205499,22.2160964],[114.020773,22.2177583],[114.0210866,22.2191681],[114.0216276,22.2205519],[114.0223379,22.2219078],[114.0232097,22.2231667],[114.0242357,22.2245251],[114.025078,22.2252114],[114.026233,22.226029],[114.0416815,22.2344125],[114.0442614,22.2357929],[114.0459902,22.236886],[114.0489412,22.2391298],[114.0537549,22.2432735],[114.0654892,22.2534755],[114.0676409,22.2552398],[114.069971,22.2570854],[114.0746091,22.2603009],[114.0793854,22.2632508],[114.087189,22.2674106],[114.0951543,22.2715487],[114.112525,22.2809372],[114.1298037,22.2909048],[114.1438431,22.2935413],[114.1448727,22.2937415],[114.1455284,22.2938356],[114.1462901,22.2938922],[114.1468797,22.2938981],[114.1473515,22.2938564],[114.1481223,22.2937136],[114.1487891,22.2935702],[114.1504262,22.2932028],[114.1560217,22.2919282],[114.1564538,22.2918197],[114.1569548,22.2916678],[114.157497,22.2914378],[114.1579516,22.2912099],[114.1584838,22.2908716],[114.1588817,22.2905631],[114.1591244,22.2903218],[114.159318,22.2900859],[114.1594128,22.289894],[114.1594468,22.2897505],[114.1594606,22.2895633],[114.159448,22.2893383],[114.1593903,22.2890886],[114.1592608,22.2885417],[114.1592246,22.2882557],[114.1592326,22.288056],[114.1592658,22.2877253]]]}},{"type":"Feature","properties":{"kind":"route","serviceKey":"ref:mui wo central","name":"Mui Wo - Central","serviceNames":["Mui Wo - Central"],"operators":["新世界第一渡輪服務有限公司 New World First Ferry Services Limited"],"osmRelationIds":[4094496],"osmWayCount":1,"terminalNodeIds":[426839374,529140550]},"geometry":{"type":"MultiLineString","coordinates":[[[114.002405,22.2652242],[114.0026062,22.2654711],[114.0028666,22.2656254],[114.0031974,22.2657108],[114.0034773,22.2657168],[114.0037216,22.2656891],[114.0043669,22.265491],[114.0076559,22.2642337],[114.0097954,22.2635102],[114.0119129,22.2629068],[114.0139382,22.2624641],[114.0161561,22.2622444],[114.0181173,22.2622374],[114.0197458,22.262376],[114.0210651,22.2626858],[114.0223733,22.2630739],[114.0238322,22.26368],[114.0257416,22.2645326],[114.0286795,22.2659534],[114.0307496,22.2668809],[114.0327603,22.2676229],[114.0985386,22.2871601],[114.1004982,22.2877065],[114.102108,22.2881303],[114.1032624,22.288382],[114.1051692,22.288782],[114.1067595,22.2890283],[114.1095746,22.2894529],[114.1120823,22.2898044],[114.1138054,22.2899674],[114.1156358,22.2901006],[114.1296839,22.2912616],[114.1440763,22.2939518],[114.1450432,22.2941144],[114.1459544,22.2942327],[114.1467463,22.2942563],[114.1474753,22.2941928],[114.1481177,22.2940583],[114.1488963,22.2938795],[114.1569028,22.2920522],[114.1573469,22.2919106],[114.1577042,22.2917801],[114.1582478,22.29156],[114.1588468,22.291279],[114.1594713,22.2909821],[114.1599685,22.2906867],[114.1603667,22.2903943],[114.1606941,22.2900611],[114.160918,22.2897153],[114.1610275,22.2893953],[114.1610649,22.2889876],[114.1610451,22.2886914],[114.16096,22.2882343],[114.1608965,22.2879782],[114.1607958,22.2877062],[114.1607171,22.2875627],[114.1606117,22.2874566],[114.160481,22.2873479],[114.160404,22.2873186]]]}},{"type":"Feature","properties":{"kind":"route","serviceKey":"ref:park island central","name":"Park Island - Central","serviceNames":["Park Island - Central"],"operators":["珀麗灣客運有限公司 Park Island Transport Company Limited"],"osmRelationIds":[4094497],"osmWayCount":1,"terminalNodeIds":[833842578,1208581122]},"geometry":{"type":"MultiLineString","coordinates":[[[114.0647358,22.3528466],[114.064913,22.3525872],[114.0652014,22.3524253],[114.0656371,22.3523248],[114.0660909,22.3523207],[114.0664541,22.3523366],[114.067381,22.3525085],[114.068187,22.3525898],[114.0690796,22.3525551],[114.0700778,22.3523948],[114.0708864,22.3521609],[114.0717368,22.3517904],[114.0723457,22.3514279],[114.0733194,22.3506686],[114.0739907,22.3499312],[114.0746381,22.3490328],[114.0753499,22.3478566],[114.0759044,22.3467749],[114.0762817,22.345946],[114.0838892,22.3275776],[114.0843972,22.3265886],[114.0850742,22.3256435],[114.0858532,22.3247572],[114.0867496,22.3240551],[114.0875556,22.3235653],[114.0884,22.3231526],[114.089356,22.322744],[114.0906059,22.3222571],[114.0919143,22.3218546],[114.0931332,22.3215594],[114.0949632,22.3211665],[114.0968523,22.3209496],[114.1137269,22.3194303],[114.1152291,22.3192506],[114.1166159,22.3189142],[114.1177866,22.3185449],[114.1190384,22.3180292],[114.1203465,22.317399],[114.1289493,22.3128022],[114.129744,22.3121697],[114.141295,22.2988341],[114.1437477,22.2963771],[114.1443716,22.2957023],[114.1449595,22.2951869],[114.1456955,22.2945423],[114.1464853,22.2940001],[114.1473426,22.2935916],[114.1478793,22.2933729],[114.1487158,22.2930521],[114.1495354,22.2928123],[114.1550929,22.2915516],[114.1555596,22.2914225],[114.1560102,22.2912389],[114.1563643,22.2910006],[114.156611,22.2907524],[114.1567934,22.2904894],[114.1569383,22.2901171],[114.1569329,22.2898888],[114.1568846,22.289653],[114.1568148,22.2894867],[114.156703,22.2892675],[114.156513,22.2889224],[114.1564566,22.2888102],[114.1564353,22.2887554],[114.1564212,22.2886986],[114.1564145,22.2886406],[114.1564151,22.2885862],[114.1564222,22.2885321],[114.1564358,22.2884792],[114.1564557,22.2884279],[114.1564816,22.2883791]]]}},{"type":"Feature","properties":{"kind":"route","serviceKey":"ref:peng chau central","name":"Peng Chau - Central","serviceNames":["Peng Chau - Central"],"operators":["港九小輪有限公司 Hong Kong & Kowloon Ferry Limited"],"osmRelationIds":[4094498],"osmWayCount":1,"terminalNodeIds":[1234318206,2512178963]},"geometry":{"type":"MultiLineString","coordinates":[[[114.0371381,22.2844786],[114.0369697,22.2833923],[114.0366866,22.2821889],[114.0365671,22.2815205],[114.0364476,22.2803756],[114.0364324,22.2793399],[114.0366381,22.2777135],[114.0373116,22.2761172],[114.0384728,22.2748053],[114.0398285,22.2738495],[114.04174,22.2730821],[114.0437323,22.2726097],[114.045258,22.2723994],[114.0466252,22.2722839],[114.0478028,22.2722595],[114.0493453,22.272374],[114.0504704,22.2725769],[114.0513657,22.2727878],[114.0985971,22.2868871],[114.1006029,22.2874311],[114.1027562,22.2879708],[114.1053474,22.2885019],[114.1076282,22.2889041],[114.1106064,22.2893758],[114.1123477,22.2896229],[114.1141355,22.2897809],[114.1297652,22.2910981],[114.1438963,22.2937221],[114.1448828,22.2939229],[114.1455643,22.2940062],[114.1461886,22.2940758],[114.1470223,22.2940535],[114.1478892,22.2939292],[114.1489355,22.2937126],[114.1498727,22.2934916],[114.1567961,22.2919102],[114.1573553,22.2917175],[114.1579779,22.2914549],[114.1586561,22.2911003],[114.1591065,22.2908276],[114.159353,22.2906394],[114.1595834,22.2904462],[114.1598411,22.2901966],[114.1600697,22.2898934],[114.1601856,22.2896299],[114.1602181,22.2893535],[114.1602267,22.2890515],[114.1602085,22.2886799],[114.1601655,22.2883773],[114.1601171,22.28806],[114.1601015,22.2878609],[114.1601032,22.2877165],[114.1601227,22.2875561],[114.1601614,22.2873968]]]}},{"type":"Feature","properties":{"kind":"route","serviceKey":"endpoints:塔門 tap mun|黃石 wong shek","name":"Tap Mun→Wong Shek / Tap Mun→Wong Shek(Via Ko Lau Wan) / Wong Shek→Tap Mun / Wong Shek→Tap Mun(Via Ko Lau Wan)","serviceNames":["Tap Mun→Wong Shek","Tap Mun→Wong Shek(Via Ko Lau Wan)","Wong Shek→Tap Mun","Wong Shek→Tap Mun(Via Ko Lau Wan)"],"operators":["翠華船務(香港)有限公司"],"osmRelationIds":[8357977,8357978,8364357,8364358],"osmWayCount":3,"terminalNodeIds":[1907787737,2062669802,2526208864]},"geometry":{"type":"MultiLineString","coordinates":[[[114.3585951,22.4703404],[114.3584597,22.4703211],[114.3581915,22.4702418],[114.3577838,22.4700609],[114.3571932,22.4695756],[114.3568611,22.4691686],[114.3566251,22.4687423],[114.3565285,22.4681672],[114.3564958,22.4669284],[114.3566251,22.465877],[114.3569577,22.4646674],[114.3577302,22.4629323],[114.3592536,22.4601115],[114.3598864,22.4592145],[114.3602619,22.4587633],[114.3604791,22.4585518]],[[114.3604791,22.4585518],[114.3601025,22.4586265],[114.3594153,22.4585152],[114.3573517,22.4570507],[114.338358,22.4364471],[114.3373492,22.4356362]],[[114.3373492,22.4356362],[114.3415519,22.4402074],[114.3427057,22.4419476],[114.3567633,22.4695829],[114.3574492,22.4701175],[114.3585951,22.4703404]]]}},{"type":"Feature","properties":{"kind":"route","serviceKey":"endpoints:馬料水 ma liu shui|黃石 wong shek","name":"Ma Liu Shu→Tap Mun / Ma Liu Shu→Wong Shek / Wong Shek→Ma Liu Shu","serviceNames":["Ma Liu Shu→Tap Mun","Ma Liu Shu→Wong Shek","Wong Shek→Ma Liu Shu"],"operators":["翠華船務(香港)有限公司"],"osmRelationIds":[8357979,8364359,8367105],"osmWayCount":6,"terminalNodeIds":[1907787737,2062669802,2526208824,2526208859,2526208864,2526208935,3923722278]},"geometry":{"type":"MultiLineString","coordinates":[[[114.2146769,22.4171445],[114.2150636,22.4171599],[114.2154671,22.4172537],[114.2158106,22.4173815],[114.2162939,22.4176368],[114.2167815,22.4179432],[114.2172097,22.4182612],[114.2176739,22.4186743],[114.2180339,22.4190902],[114.2183441,22.4195879],[114.2186281,22.4201605],[114.21887,22.4208045],[114.2190653,22.4215071],[114.2192094,22.4221724],[114.21938,22.4226536],[114.2196595,22.4231952],[114.2199903,22.4237878],[114.2205842,22.4245766],[114.2214973,22.4256767],[114.2221863,22.4264187],[114.2230307,22.4273219],[114.2238817,22.4282145],[114.2246232,22.4289142],[114.2271961,22.4311142],[114.2282617,22.4319878],[114.2296315,22.4330378],[114.2330121,22.435629],[114.2340798,22.4364186],[114.2350651,22.4371046],[114.235868,22.437622],[114.2373955,22.4384207],[114.2393487,22.4391249],[114.2414193,22.4396802],[114.2438328,22.4400868],[114.2462361,22.4404437],[114.2488969,22.4405295],[114.2722967,22.4402357],[114.2750486,22.4402109],[114.2773149,22.4402671],[114.2793671,22.440439],[114.2811056,22.4410155],[114.2811507,22.4409526]],[[114.2811507,22.4409526],[114.2811167,22.4410269],[114.2795062,22.4415345],[114.2784768,22.4419614],[114.2774999,22.4423675],[114.2770064,22.4427245],[114.2766416,22.4431707],[114.276427,22.4435475],[114.276309,22.4438847],[114.2762232,22.4443111],[114.2762232,22.4447573],[114.2763847,22.4456602],[114.2766416,22.446324],[114.2769849,22.4469289],[114.2780042,22.4482775],[114.2795169,22.449983],[114.2826503,22.4532556],[114.2837983,22.4542868],[114.2848063,22.4549507],[114.2866945,22.4561108],[114.2881322,22.4571816],[114.2901819,22.4588181],[114.2908144,22.4592241],[114.2914796,22.4595414],[114.292199,22.4597501],[114.2928427,22.4598195],[114.2933357,22.4597992],[114.2939365,22.4596802],[114.2946768,22.4594423],[114.2965114,22.4587383],[114.2984858,22.4578363],[114.2998054,22.4572265],[114.2998966,22.4571373],[114.2999555,22.4569976]],[[114.2999555,22.4569976],[114.3000683,22.4577421],[114.3001061,22.4597898],[114.300127,22.4630612],[114.3004602,22.4654908],[114.3008029,22.4667693],[114.301554,22.4684449],[114.3049121,22.4737291],[114.3073475,22.4766637],[114.3107266,22.4798267],[114.3122399,22.4810059],[114.3138385,22.4822153],[114.3155765,22.4830976],[114.3171747,22.4838907],[114.3182582,22.484079],[114.3257797,22.4849117],[114.330554,22.4849315],[114.3321097,22.4848324],[114.3345553,22.4843764],[114.3374092,22.4837816],[114.3407142,22.4823838],[114.344362,22.4805003],[114.3462181,22.4791322],[114.3491465,22.4768575],[114.3529719,22.4733326],[114.3545973,22.4719942],[114.3562925,22.4709185],[114.3570969,22.4705172],[114.3574566,22.470398],[114.3578586,22.4703437],[114.3585951,22.4703404]],[[114.3585951,22.4703404],[114.3584597,22.4703211],[114.3581915,22.4702418],[114.3577838,22.4700609],[114.3571932,22.4695756],[114.3568611,22.4691686],[114.3566251,22.4687423],[114.3565285,22.4681672],[114.3564958,22.4669284],[114.3566251,22.465877],[114.3569577,22.4646674],[114.3577302,22.4629323],[114.3592536,22.4601115],[114.3598864,22.4592145],[114.3602619,22.4587633],[114.3604791,22.4585518]],[[114.3604791,22.4585518],[114.3602997,22.4585499],[114.3599671,22.4584805],[114.3595326,22.4583318],[114.3594582,22.4582928],[114.3591732,22.4581434],[114.357655,22.4569536],[114.3520939,22.4510865],[114.3514377,22.4501615],[114.3510783,22.4491699],[114.3509388,22.4481535],[114.3508905,22.4462992],[114.3510029,22.4439643],[114.3527627,22.4253204],[114.3531328,22.4248443],[114.3535231,22.424851]],[[114.3535231,22.424851],[114.3530805,22.4247389],[114.3525747,22.425237],[114.3519202,22.4289381],[114.3511862,22.4311095],[114.3503503,22.4335821],[114.3487233,22.4375718],[114.3479638,22.4389408],[114.3472924,22.4397739],[114.3469661,22.4400623],[114.3463335,22.4404493],[114.3459135,22.440571],[114.3454388,22.4406202],[114.3450131,22.4405994],[114.3438225,22.4402565],[114.342093,22.4392068],[114.3401299,22.437707],[114.3383529,22.4362425],[114.3377566,22.435853],[114.3373492,22.4356362]]]}},{"type":"Feature","properties":{"kind":"route","serviceKey":"endpoints:赤徑 chek keng|黃石 wong shek","name":"Wong Shek-Wan Chai/Chek Keng","serviceNames":["Wong Shek-Wan Chai/Chek Keng"],"operators":["翠華船務(香港)有限公司"],"osmRelationIds":[8357980],"osmWayCount":3,"terminalNodeIds":[]},"geometry":{"type":"MultiLineString","coordinates":[[[114.3373492,22.4356362],[114.3413344,22.4402275],[114.3423664,22.4420105],[114.3430249,22.4434561],[114.3435144,22.4451639],[114.3437867,22.4466391],[114.3441152,22.4539294],[114.3438148,22.4560116],[114.3434069,22.4578775],[114.3418222,22.4613202]],[[114.3418222,22.4613202],[114.3486854,22.4492906],[114.3499946,22.4464133],[114.3507072,22.4440317],[114.3526687,22.4252787],[114.3531067,22.4247916],[114.3535231,22.424851]],[[114.3535231,22.424851],[114.3530805,22.4247389],[114.3525747,22.425237],[114.3519202,22.4289381],[114.3511862,22.4311095],[114.3503503,22.4335821],[114.3487233,22.4375718],[114.3479638,22.4389408],[114.3472924,22.4397739],[114.3469661,22.4400623],[114.3463335,22.4404493],[114.3459135,22.440571],[114.3454388,22.4406202],[114.3450131,22.4405994],[114.3438225,22.4402565],[114.342093,22.4392068],[114.3401299,22.437707],[114.3383529,22.4362425],[114.3377566,22.435853],[114.3373492,22.4356362]]]}},{"type":"Feature","properties":{"kind":"route","serviceKey":"endpoints:荔枝窩 lai chi wo|馬料水 ma liu shui","name":"Lai Chi Wo→Ma Liu Shui / Ma Liu Shui→Lai Chi Wo","serviceNames":["Lai Chi Wo→Ma Liu Shui","Ma Liu Shui→Lai Chi Wo"],"operators":["聲威實業有限公司"],"osmRelationIds":[8364360,8364361],"osmWayCount":1,"terminalNodeIds":[2145447123,3921826406]},"geometry":{"type":"MultiLineString","coordinates":[[[114.2633347,22.5296361],[114.2643987,22.5295785],[114.2651243,22.5296009],[114.2659503,22.5296925],[114.2667389,22.5298609],[114.2678408,22.530222],[114.2690964,22.5306006],[114.2704179,22.5308723],[114.2720067,22.5310898],[114.2738306,22.5311591],[114.2757823,22.5310656],[114.2779023,22.5308595],[114.2807916,22.5305137],[114.3046097,22.527828],[114.3063338,22.527609],[114.3082817,22.5272834],[114.3094935,22.527015],[114.3105425,22.5266808],[114.3111059,22.5264862],[114.312581,22.525709],[114.3143187,22.5247422],[114.3169584,22.5232122],[114.3325959,22.51476],[114.3349901,22.5133397],[114.336124,22.512494],[114.3369217,22.5115833],[114.3376763,22.5105772],[114.3382153,22.5094782],[114.3385436,22.508091],[114.33879,22.5062794],[114.3387788,22.5050296],[114.3387315,22.5041938],[114.3386189,22.5032371],[114.3381628,22.5018468],[114.3377024,22.50088],[114.3368708,22.4999405],[114.3361106,22.4993164],[114.3349046,22.4983411],[114.317796,22.4862028],[114.316477,22.4852082],[114.3139452,22.483386],[114.3109413,22.4814879],[114.242254,22.4432328],[114.2407916,22.4423552],[114.239657,22.4416189],[114.2383822,22.4407511],[114.2370777,22.4397482],[114.235494,22.438483],[114.2292153,22.4335972],[114.2240663,22.4295156],[114.2226739,22.4282732],[114.2220381,22.4276771],[114.2212807,22.4268955],[114.2202707,22.4257724],[114.2197123,22.4250296],[114.2192396,22.4243065],[114.2188694,22.4235586],[114.218695,22.4230591],[114.2184991,22.4222819],[114.21841,22.4217363],[114.2183508,22.4209891],[114.2182628,22.4197604],[114.2182177,22.4192012],[114.2181605,22.4185542],[114.2180717,22.4179643],[114.2179619,22.417487],[114.2176868,22.4169375],[114.2173567,22.4165392],[114.215153,22.4148372]]]}},{"type":"Feature","properties":{"kind":"route","serviceKey":"endpoints:東平洲 tung ping chau|馬料水 ma liu shui","name":"Ma Liu Shui→Tung Ping Chau / Tung Ping Chau→Ma Liu Shui","serviceNames":["Ma Liu Shui→Tung Ping Chau","Tung Ping Chau→Ma Liu Shui"],"operators":["翠華船務(香港)有限公司"],"osmRelationIds":[8364362,8364363],"osmWayCount":1,"terminalNodeIds":[420156917,3923722278]},"geometry":{"type":"MultiLineString","coordinates":[[[114.2146769,22.4171445],[114.2151493,22.4172572],[114.2154592,22.4173855],[114.2158435,22.4176003],[114.2163285,22.4179094],[114.2168405,22.4182746],[114.2173688,22.4186992],[114.2177586,22.4191078],[114.218028,22.4195232],[114.2183478,22.4200968],[114.2185644,22.4206028],[114.2186874,22.4209902],[114.2187888,22.4214234],[114.2188945,22.42196],[114.2190036,22.422392],[114.2190913,22.4226206],[114.2194174,22.4233138],[114.2198217,22.4239963],[114.2204065,22.4248071],[114.2209307,22.4254348],[114.2216736,22.4263226],[114.222383,22.4270634],[114.223172,22.4278995],[114.2243,22.4289905],[114.2271851,22.4314046],[114.2294744,22.4332083],[114.2346641,22.4372372],[114.2364888,22.4385909],[114.2382138,22.4398521],[114.2398766,22.4410056],[114.2411376,22.4418389],[114.2431396,22.4430454],[114.3116033,22.4811802],[114.3135931,22.4823794],[114.3160123,22.4838698],[114.3361988,22.4980239],[114.3930734,22.5361028],[114.4054347,22.5439888],[114.4126384,22.5484167],[114.4166001,22.5507604],[114.4208499,22.5531401],[114.4243722,22.5547478],[114.4263225,22.5553403],[114.428306,22.5556622],[114.4297289,22.5556279],[114.4311857,22.5553744],[114.4323905,22.5548675],[114.4333911,22.554072],[114.4340091,22.5532522],[114.4346481,22.5519691],[114.4350671,22.5502786],[114.4351689,22.5488656],[114.4351132,22.5477838],[114.4349402,22.5469844],[114.4347832,22.5465467],[114.434556,22.5461447],[114.4343078,22.5458298],[114.4340871,22.5456236],[114.4338805,22.5454305],[114.4334819,22.5451005],[114.4335155,22.5450676]]]}},{"type":"Feature","properties":{"kind":"route","serviceKey":"endpoints:塔門 tap mun|馬料水 ma liu shui","name":"Tap Mun→Ma Liu Shu","serviceNames":["Tap Mun→Ma Liu Shu"],"operators":["翠華船務(香港)有限公司"],"osmRelationIds":[8367104],"osmWayCount":3,"terminalNodeIds":[2526208859,2526208864,2526208935,3923722278]},"geometry":{"type":"MultiLineString","coordinates":[[[114.2999555,22.4569976],[114.3000683,22.4577421],[114.3001061,22.4597898],[114.300127,22.4630612],[114.3004602,22.4654908],[114.3008029,22.4667693],[114.301554,22.4684449],[114.3049121,22.4737291],[114.3073475,22.4766637],[114.3107266,22.4798267],[114.3122399,22.4810059],[114.3138385,22.4822153],[114.3155765,22.4830976],[114.3171747,22.4838907],[114.3182582,22.484079],[114.3257797,22.4849117],[114.330554,22.4849315],[114.3321097,22.4848324],[114.3345553,22.4843764],[114.3374092,22.4837816],[114.3407142,22.4823838],[114.344362,22.4805003],[114.3462181,22.4791322],[114.3491465,22.4768575],[114.3529719,22.4733326],[114.3545973,22.4719942],[114.3562925,22.4709185],[114.3570969,22.4705172],[114.3574566,22.470398],[114.3578586,22.4703437],[114.3585951,22.4703404]],[[114.2811507,22.4409526],[114.2811167,22.4410269],[114.2795062,22.4415345],[114.2784768,22.4419614],[114.2774999,22.4423675],[114.2770064,22.4427245],[114.2766416,22.4431707],[114.276427,22.4435475],[114.276309,22.4438847],[114.2762232,22.4443111],[114.2762232,22.4447573],[114.2763847,22.4456602],[114.2766416,22.446324],[114.2769849,22.4469289],[114.2780042,22.4482775],[114.2795169,22.449983],[114.2826503,22.4532556],[114.2837983,22.4542868],[114.2848063,22.4549507],[114.2866945,22.4561108],[114.2881322,22.4571816],[114.2901819,22.4588181],[114.2908144,22.4592241],[114.2914796,22.4595414],[114.292199,22.4597501],[114.2928427,22.4598195],[114.2933357,22.4597992],[114.2939365,22.4596802],[114.2946768,22.4594423],[114.2965114,22.4587383],[114.2984858,22.4578363],[114.2998054,22.4572265],[114.2998966,22.4571373],[114.2999555,22.4569976]],[[114.2146769,22.4171445],[114.2150636,22.4171599],[114.2154671,22.4172537],[114.2158106,22.4173815],[114.2162939,22.4176368],[114.2167815,22.4179432],[114.2172097,22.4182612],[114.2176739,22.4186743],[114.2180339,22.4190902],[114.2183441,22.4195879],[114.2186281,22.4201605],[114.21887,22.4208045],[114.2190653,22.4215071],[114.2192094,22.4221724],[114.21938,22.4226536],[114.2196595,22.4231952],[114.2199903,22.4237878],[114.2205842,22.4245766],[114.2214973,22.4256767],[114.2221863,22.4264187],[114.2230307,22.4273219],[114.2238817,22.4282145],[114.2246232,22.4289142],[114.2271961,22.4311142],[114.2282617,22.4319878],[114.2296315,22.4330378],[114.2330121,22.435629],[114.2340798,22.4364186],[114.2350651,22.4371046],[114.235868,22.437622],[114.2373955,22.4384207],[114.2393487,22.4391249],[114.2414193,22.4396802],[114.2438328,22.4400868],[114.2462361,22.4404437],[114.2488969,22.4405295],[114.2722967,22.4402357],[114.2750486,22.4402109],[114.2773149,22.4402671],[114.2793671,22.440439],[114.2811056,22.4410155],[114.2811507,22.4409526]]]}},{"type":"Feature","properties":{"kind":"route","serviceKey":"stops:4079681321|5678984424","name":"Sai Kung→Town Island / Town Island→Sai Kung","serviceNames":["Sai Kung→Town Island","Town Island→Sai Kung"],"operators":["晨曦會"],"osmRelationIds":[8369390,8369391],"osmWayCount":1,"terminalNodeIds":[4079681321,5678984424]},"geometry":{"type":"MultiLineString","coordinates":[[[114.2758326,22.3811537],[114.2761752,22.3808294],[114.276595,22.3803315],[114.2768643,22.3799412],[114.2770588,22.3796402],[114.2772962,22.3792004],[114.2775648,22.3785824],[114.2777951,22.3779292],[114.2788438,22.3738366],[114.2790267,22.3730984],[114.2792725,22.3718979],[114.2795404,22.3702386],[114.2800268,22.3670106],[114.2806026,22.3639284],[114.2811305,22.3614254],[114.2814161,22.3603627],[114.2819425,22.3585617],[114.282609,22.3567416],[114.2833651,22.3550241],[114.2842182,22.3535596],[114.2854092,22.3520842],[114.2868625,22.3504411],[114.2883862,22.3489905],[114.315881,22.3238084],[114.3178165,22.3222204],[114.3192585,22.3212478],[114.3212259,22.3203547],[114.3233871,22.3198476],[114.3255114,22.319649],[114.3274662,22.3196653],[114.3294181,22.3199611],[114.3313392,22.3205135],[114.3329979,22.3212273],[114.3349339,22.3220936],[114.353194,22.3304847],[114.3573624,22.3321201],[114.3607082,22.3333669]]]}},{"type":"Feature","properties":{"kind":"route","serviceKey":"stops:1933660973|2145447123|4928680485","name":"Kat O→Ma Liu Shui / Ma Liu Shui→Kat O","serviceNames":["Kat O→Ma Liu Shui","Ma Liu Shui→Kat O"],"operators":["聲威實業有限公司"],"osmRelationIds":[8541185,8541186],"osmWayCount":1,"terminalNodeIds":[1933660973,2145447123,4928680485]},"geometry":{"type":"MultiLineString","coordinates":[[[114.2697581,22.5504217],[114.2697323,22.5504124],[114.2695902,22.5503407],[114.2693783,22.5502416],[114.2693005,22.5499741],[114.2693461,22.5496991],[114.2695205,22.5495208],[114.2700872,22.5491668],[114.2707588,22.5489153],[114.2718239,22.5486325],[114.2735731,22.5483612],[114.2752552,22.5481838],[114.2772353,22.5480285],[114.2790566,22.5479336],[114.2812235,22.5479163],[114.2825743,22.5480288],[114.2839281,22.5482616],[114.2849047,22.5485095],[114.2859928,22.5488416],[114.287221,22.5493333],[114.2887786,22.5499889],[114.289364,22.5501653],[114.2896028,22.5502029],[114.2898528,22.5501804],[114.2899525,22.5500882],[114.2898082,22.5500531],[114.2894801,22.5498738],[114.2871669,22.5485649],[114.2865904,22.5481521],[114.2862098,22.5478266],[114.2853622,22.5468384],[114.2844153,22.5454586],[114.2838341,22.5442337],[114.2833714,22.5426088],[114.2830427,22.5405946],[114.2829646,22.539026],[114.2830481,22.5372184],[114.2833333,22.535626],[114.2838735,22.5341002],[114.2847405,22.5326722],[114.2857456,22.5316543],[114.2867191,22.5309964],[114.2879208,22.5304271],[114.2888549,22.5301205],[114.290131,22.5298183],[114.2914245,22.5296449],[114.3056988,22.528075],[114.3072601,22.5278235],[114.3084193,22.5276081],[114.3092244,22.5273943],[114.3106978,22.5269337],[114.3117559,22.5264836],[114.3129711,22.5257943],[114.3148775,22.5246732],[114.3339102,22.5146088],[114.3354244,22.5137541],[114.3369228,22.5125712],[114.337884,22.5115534],[114.3386095,22.5103842],[114.3391485,22.5090478],[114.3394852,22.5074801],[114.3396326,22.5061555],[114.3396265,22.5045113],[114.3393304,22.5029901],[114.3388825,22.5016827],[114.3381247,22.5004378],[114.3368313,22.4991123],[114.3352174,22.4979486],[114.3186302,22.486255],[114.3158425,22.4842452],[114.313245,22.4825368],[114.3111792,22.4813219],[114.2423729,22.4429339],[114.2406933,22.4419216],[114.23928,22.4410123],[114.2379219,22.4400499],[114.2292484,22.4333237],[114.2240784,22.4291393],[114.2231679,22.4283197],[114.2223033,22.4274632],[114.2216589,22.4268044],[114.2210225,22.4260976],[114.2205479,22.425511],[114.2200356,22.4248902],[114.2195934,22.4242182],[114.2191421,22.4234458],[114.2188303,22.4226713],[114.2186606,22.4219814],[114.2185503,22.4212148],[114.2185077,22.4206682],[114.2184834,22.4203096],[114.218425,22.4186936],[114.2183519,22.4179639],[114.2182314,22.4174302],[114.2179587,22.4168487],[114.2176711,22.4164795],[114.2173172,22.4161767],[114.215153,22.4148372]]]}},{"type":"Feature","properties":{"kind":"route","serviceKey":"endpoints:中環 central|尖東 tsim sha tsui east","name":"HK Water Taxi Government Route","serviceNames":["HK Water Taxi Government Route"],"operators":["富裕小輪有限公司 Fortune Ferry Limited"],"osmRelationIds":[19705016],"osmWayCount":3,"terminalNodeIds":[8916269793,9806787449,9806787474,12485845682]},"geometry":{"type":"MultiLineString","coordinates":[[[114.1588118,22.2996013],[114.1592574,22.2989013],[114.1597078,22.2980847],[114.1604481,22.2966506],[114.1609041,22.2958293],[114.1614084,22.2950428],[114.162204,22.293907],[114.1630819,22.2930169],[114.1640671,22.2923114],[114.1654276,22.2916888],[114.1665558,22.2913041],[114.1674435,22.2910639],[114.1686595,22.2908622],[114.1700186,22.2907185],[114.1715697,22.2907184],[114.1729463,22.2908171],[114.1739539,22.2909079],[114.1755891,22.291252],[114.1764563,22.2917164],[114.1769966,22.2921608],[114.1772851,22.2926126],[114.1775264,22.2931375],[114.1776008,22.2936209],[114.1775574,22.2940802],[114.1774764,22.2942963],[114.1772932,22.294628],[114.1769657,22.2948955],[114.1764332,22.2951873]],[[114.1764332,22.2951873],[114.1768057,22.2950995],[114.1771271,22.294928],[114.1774977,22.2946941],[114.1778599,22.2943061],[114.1780752,22.2938758],[114.1781388,22.2934411],[114.1781013,22.2928575],[114.1780407,22.2924189],[114.1778739,22.2918228],[114.1775506,22.2910006],[114.1771957,22.2902163],[114.1762187,22.2887414],[114.1756568,22.2880362],[114.1749909,22.2872577],[114.1746601,22.2868131],[114.1743478,22.2862844],[114.1741323,22.2857597],[114.1739793,22.2852362],[114.1738947,22.2846866]],[[114.1738947,22.2846866],[114.1738432,22.2852553],[114.1737611,22.2856341],[114.1736726,22.2860539],[114.1735026,22.2864077],[114.1732879,22.2866948],[114.1730719,22.2869039],[114.1728183,22.2871149],[114.1724853,22.2873298],[114.1721921,22.2875048],[114.1717911,22.2876686],[114.1713298,22.287844],[114.1707836,22.2880015],[114.1701004,22.288136],[114.1696983,22.288202],[114.1690959,22.2882679],[114.1682953,22.2883023],[114.1676569,22.2882998],[114.1672881,22.2882812],[114.1669944,22.2882527],[114.1666551,22.2882041],[114.1661551,22.2880973],[114.1656454,22.2879252],[114.1653361,22.2877999],[114.1648404,22.2875684],[114.1643146,22.2873115],[114.1636532,22.2869317],[114.1632235,22.2866401],[114.162964,22.2864353],[114.1625504,22.2861299]]]}},{"type":"Feature","properties":{"kind":"terminal","name":"Ferry terminal","reference":null,"serviceNames":["Discovery Bay - Central"],"osmElementIds":["node/364861796"]},"geometry":{"type":"Point","coordinates":[114.0179888,22.2970305]}},{"type":"Feature","properties":{"kind":"terminal","name":"Central","reference":null,"serviceNames":["Discovery Bay - Central"],"osmElementIds":["node/364861473"]},"geometry":{"type":"Point","coordinates":[114.1574022,22.2881918]}},{"type":"Feature","properties":{"kind":"terminal","name":"Discovery Bay Pier","reference":"DB03R","serviceNames":["Discovery Bay - Central"],"osmElementIds":["node/2539719870"]},"geometry":{"type":"Point","coordinates":[114.0179625,22.2970171]}},{"type":"Feature","properties":{"kind":"terminal","name":"Cheung Chau Ferry Pier","reference":null,"serviceNames":["Cheung Chau - Central"],"osmElementIds":["node/1611297860"]},"geometry":{"type":"Point","coordinates":[114.0283656,22.2087121]}},{"type":"Feature","properties":{"kind":"terminal","name":"Central","reference":null,"serviceNames":["Cheung Chau - Central"],"osmElementIds":["node/335945800"]},"geometry":{"type":"Point","coordinates":[114.1592658,22.2877253]}},{"type":"Feature","properties":{"kind":"terminal","name":"Ferry terminal","reference":null,"serviceNames":["Mui Wo - Central"],"osmElementIds":["node/529140550"]},"geometry":{"type":"Point","coordinates":[114.002405,22.2652242]}},{"type":"Feature","properties":{"kind":"terminal","name":"Central","reference":null,"serviceNames":["Mui Wo - Central"],"osmElementIds":["node/426839374"]},"geometry":{"type":"Point","coordinates":[114.160404,22.2873186]}},{"type":"Feature","properties":{"kind":"terminal","name":"Park Island Pier","reference":null,"serviceNames":["Park Island - Central"],"osmElementIds":["node/1208581122"]},"geometry":{"type":"Point","coordinates":[114.0646645,22.3528708]}},{"type":"Feature","properties":{"kind":"terminal","name":"Ferry terminal","reference":null,"serviceNames":["Park Island - Central"],"osmElementIds":["node/833842578"]},"geometry":{"type":"Point","coordinates":[114.0647358,22.3528466]}},{"type":"Feature","properties":{"kind":"terminal","name":"Peng Chau Ferry Pier","reference":null,"serviceNames":["Peng Chau - Central"],"osmElementIds":["node/2512178963"]},"geometry":{"type":"Point","coordinates":[114.0371381,22.2844786]}},{"type":"Feature","properties":{"kind":"terminal","name":"Central","reference":null,"serviceNames":["Peng Chau - Central"],"osmElementIds":["node/1234318206"]},"geometry":{"type":"Point","coordinates":[114.1601614,22.2873968]}},{"type":"Feature","properties":{"kind":"terminal","name":"Tap Mun Pier","reference":null,"serviceNames":["Ma Liu Shu→Tap Mun","Ma Liu Shu→Wong Shek","Tap Mun→Ma Liu Shu","Tap Mun→Wong Shek","Tap Mun→Wong Shek(Via Ko Lau Wan)","Wong Shek→Ma Liu Shu","Wong Shek→Tap Mun","Wong Shek→Tap Mun(Via Ko Lau Wan)"],"osmElementIds":["node/2526208864"]},"geometry":{"type":"Point","coordinates":[114.3585951,22.4703404]}},{"type":"Feature","properties":{"kind":"terminal","name":"Ko Lau Wan Public Pier","reference":null,"serviceNames":["Ma Liu Shu→Wong Shek","Tap Mun→Wong Shek(Via Ko Lau Wan)","Wong Shek→Ma Liu Shu","Wong Shek→Tap Mun(Via Ko Lau Wan)"],"osmElementIds":["node/2062669802"]},"geometry":{"type":"Point","coordinates":[114.3604791,22.4585518]}},{"type":"Feature","properties":{"kind":"terminal","name":"Wong Shek Pier","reference":null,"serviceNames":["Ma Liu Shu→Wong Shek","Tap Mun→Wong Shek","Tap Mun→Wong Shek(Via Ko Lau Wan)","Wong Shek→Ma Liu Shu","Wong Shek→Tap Mun","Wong Shek→Tap Mun(Via Ko Lau Wan)"],"osmElementIds":["node/1907787737"]},"geometry":{"type":"Point","coordinates":[114.3373492,22.4356362]}},{"type":"Feature","properties":{"kind":"terminal","name":"Ma Liu Shui Ferry Pier","reference":null,"serviceNames":["Ma Liu Shui→Tung Ping Chau","Ma Liu Shu→Tap Mun","Ma Liu Shu→Wong Shek","Tap Mun→Ma Liu Shu","Tung Ping Chau→Ma Liu Shui","Wong Shek→Ma Liu Shu"],"osmElementIds":["node/3923722278"]},"geometry":{"type":"Point","coordinates":[114.2146769,22.4171445]}},{"type":"Feature","properties":{"kind":"terminal","name":"Sham Chung Pier","reference":"NP112","serviceNames":["Ma Liu Shu→Tap Mun","Ma Liu Shu→Wong Shek","Tap Mun→Ma Liu Shu","Wong Shek→Ma Liu Shu"],"osmElementIds":["node/2526208935"]},"geometry":{"type":"Point","coordinates":[114.2811507,22.4409526]}},{"type":"Feature","properties":{"kind":"terminal","name":"Lai Chi Chong Pier","reference":"NP111","serviceNames":["Ma Liu Shu→Tap Mun","Ma Liu Shu→Wong Shek","Tap Mun→Ma Liu Shu","Wong Shek→Ma Liu Shu"],"osmElementIds":["node/2526208859"]},"geometry":{"type":"Point","coordinates":[114.2999555,22.4569976]}},{"type":"Feature","properties":{"kind":"terminal","name":"Chek Keng Public Pier","reference":null,"serviceNames":["Ma Liu Shu→Wong Shek","Wong Shek→Ma Liu Shu"],"osmElementIds":["node/2526208824"]},"geometry":{"type":"Point","coordinates":[114.3535231,22.424851]}},{"type":"Feature","properties":{"kind":"terminal","name":"Ma Liu Shui Landing No. 1","reference":"NP152","serviceNames":["Kat O→Ma Liu Shui","Lai Chi Wo→Ma Liu Shui","Ma Liu Shui→Kat O","Ma Liu Shui→Lai Chi Wo"],"osmElementIds":["node/2145447123"]},"geometry":{"type":"Point","coordinates":[114.2144471,22.4138798]}},{"type":"Feature","properties":{"kind":"terminal","name":"Lai Chi Wo Landing Steps","reference":null,"serviceNames":["Lai Chi Wo→Ma Liu Shui","Ma Liu Shui→Lai Chi Wo"],"osmElementIds":["node/3921826406"]},"geometry":{"type":"Point","coordinates":[114.2633347,22.5296361]}},{"type":"Feature","properties":{"kind":"terminal","name":"Tung Ping Chau Public Pier","reference":null,"serviceNames":["Ma Liu Shui→Tung Ping Chau","Tung Ping Chau→Ma Liu Shui"],"osmElementIds":["node/420156917"]},"geometry":{"type":"Point","coordinates":[114.4335155,22.5450676]}},{"type":"Feature","properties":{"kind":"terminal","name":"Sai Kung Public Pier","reference":null,"serviceNames":["Sai Kung→Town Island","Town Island→Sai Kung"],"osmElementIds":["node/4079681321"]},"geometry":{"type":"Point","coordinates":[114.2758326,22.3811537]}},{"type":"Feature","properties":{"kind":"terminal","name":"Town Island Pier","reference":null,"serviceNames":["Sai Kung→Town Island","Town Island→Sai Kung"],"osmElementIds":["node/5678984424"]},"geometry":{"type":"Point","coordinates":[114.3607082,22.3333669]}},{"type":"Feature","properties":{"kind":"terminal","name":"Ap Chau Public Pier","reference":null,"serviceNames":["Kat O→Ma Liu Shui","Ma Liu Shui→Kat O"],"osmElementIds":["node/4928680485"]},"geometry":{"type":"Point","coordinates":[114.2697581,22.5504217]}},{"type":"Feature","properties":{"kind":"terminal","name":"Kat O Pier","reference":null,"serviceNames":["Kat O→Ma Liu Shui","Ma Liu Shui→Kat O"],"osmElementIds":["node/1933660973"]},"geometry":{"type":"Point","coordinates":[114.2899525,22.5500882]}},{"type":"Feature","properties":{"kind":"terminal","name":"Tsim Sha Tsui East","reference":null,"serviceNames":["HK Water Taxi Government Route"],"osmElementIds":["node/9806787449"]},"geometry":{"type":"Point","coordinates":[114.1764332,22.2951873]}},{"type":"Feature","properties":{"kind":"terminal","name":"WestK","reference":null,"serviceNames":["HK Water Taxi Government Route"],"osmElementIds":["node/12485845682"]},"geometry":{"type":"Point","coordinates":[114.1588118,22.2996013]}},{"type":"Feature","properties":{"kind":"terminal","name":"Wan Chai","reference":null,"serviceNames":["HK Water Taxi Government Route"],"osmElementIds":["node/8916269793"]},"geometry":{"type":"Point","coordinates":[114.1738947,22.2846866]}},{"type":"Feature","properties":{"kind":"terminal","name":"Central","reference":null,"serviceNames":["HK Water Taxi Government Route"],"osmElementIds":["node/9806787474"]},"geometry":{"type":"Point","coordinates":[114.1625504,22.2861299]}},{"type":"Feature","properties":{"kind":"terminal","name":"Peng Chau Public Pier","reference":null,"serviceNames":[],"osmElementIds":["node/1234318136"]},"geometry":{"type":"Point","coordinates":[114.0378014,22.2842318]}},{"type":"Feature","properties":{"kind":"terminal","name":"Wan Chai(Nam Fung Wan)Pier","reference":null,"serviceNames":[],"osmElementIds":["node/1272836490"]},"geometry":{"type":"Point","coordinates":[114.3418222,22.4613202]}},{"type":"Feature","properties":{"kind":"terminal","name":"Ocean Park Tai Shue Wan Pier","reference":null,"serviceNames":[],"osmElementIds":["node/1327081001"]},"geometry":{"type":"Point","coordinates":[114.1672679,22.2347282]}},{"type":"Feature","properties":{"kind":"terminal","name":"Ma Liu Shui Landing No. 3","reference":"NP154","serviceNames":[],"osmElementIds":["node/2145437346"]},"geometry":{"type":"Point","coordinates":[114.2147362,22.4151765]}},{"type":"Feature","properties":{"kind":"terminal","name":"Ma Liu Shui Landing No. 2","reference":"NP153","serviceNames":[],"osmElementIds":["node/2145447120"]},"geometry":{"type":"Point","coordinates":[114.2146124,22.4143659]}},{"type":"Feature","properties":{"kind":"terminal","name":"Peng Chau Public Pier","reference":null,"serviceNames":[],"osmElementIds":["node/2512178966"]},"geometry":{"type":"Point","coordinates":[114.0377263,22.2841549]}},{"type":"Feature","properties":{"kind":"terminal","name":"Sha Tau Kok Landing No.2","reference":null,"serviceNames":[],"osmElementIds":["node/11545423995"]},"geometry":{"type":"Point","coordinates":[114.2259572,22.5434505]}},{"type":"Feature","properties":{"kind":"terminal","name":"Tung Ping Chau Public Pier","reference":null,"serviceNames":[],"osmElementIds":["node/11671361477"]},"geometry":{"type":"Point","coordinates":[114.4335568,22.5450246]}},{"type":"Feature","properties":{"kind":"terminal","name":"Ma Liu Shui Landing No. 3","reference":"NP154","serviceNames":[],"osmElementIds":["node/13148593512"]},"geometry":{"type":"Point","coordinates":[114.2147362,22.4151765]}},{"type":"Feature","properties":{"kind":"terminal","name":"Ma Liu Shui New Ferry Pier","reference":null,"serviceNames":[],"osmElementIds":["node/13148593513"]},"geometry":{"type":"Point","coordinates":[114.215153,22.4148372]}}]}
